OBJECT_NAME,OBJECT_ID,EPOCH,MEAN_MOTION,ECCENTRICITY,INCLINATION,RA_OF_ASC_NODE,ARG_OF_PERICENTER,MEAN_ANOMALY,EPHEMERIS_TYPE,CLASSIFICATION_TYPE,NORAD_CAT_ID,ELEMENT_SET_NO,REV_AT_EPOCH,BSTAR,MEAN_MOTION_DOT,MEAN_MOTION_DDOT
STAR ONE D2,2021-069A,2026-06-08T07:55:02.533152,1.00333647,.0005608,0.0128,334.6169,102.1905,228.6130,0,U,49055,999,1785,0,0,0
EUTELSAT QUANTUM,2021-069B,2026-06-09T01:35:12.403392,1.00272460,.0002299,0.0108,352.9142,81.1066,254.9312,0,U,49056,999,1784,0,.142E-5,0
ZHONGXING-2E,2021-071A,2026-06-08T22:24:16.216128,1.00273610,.0001749,0.0437,242.0026,239.9658,209.4768,0,U,49062,999,1795,0,-.275E-5,0
TJS-7,2021-077A,2026-06-09T04:18:32.794272,1.00270985,.0002402,0.4871,86.1713,335.5356,161.0305,0,U,49115,999,947,0,-.107E-5,0
CHINASAT 9B,2021-080A,2026-06-09T02:21:02.742624,1.00272799,.0001537,0.0340,96.2716,7.9636,289.9297,0,U,49125,999,1756,0,-.296E-5,0
SHIJIAN-21 (SJ-21),2021-094A,2026-06-08T18:41:31.163424,1.00275369,.0049597,5.0921,61.2284,168.0434,76.2756,0,U,49330,999,527,0,-.332E-5,0
SES-17,2021-095A,2026-06-08T13:03:49.565088,1.00269944,.00010243,0.0256,35.0415,45.9352,304.8147,0,U,49332,999,1776,0,-.256E-5,0
SYRACUSE 4A,2021-095B,2026-06-09T01:34:34.961952,1.00270508,.0001416,0.0135,329.4559,105.5540,251.5883,0,U,49333,999,1786,0,.152E-5,0
QZS-1R (MICHIBIKI-1R),2021-096A,2026-06-08T15:41:36.686112,1.00258746,.075431,37.4439,79.7113,271.6148,275.6279,0,U,49336,999,1692,0,-.231E-5,0
ZHONGXING-1D,2021-114A,2026-06-09T05:24:06.302016,1.00273581,.000025,0.0372,242.5391,320.9201,265.3656,0,U,49505,999,1674,0,-.319E-5,0
STPSAT-6,2021-118A,2026-06-08T09:25:46.362144,1.00273463,.00014023,0.2970,85.5058,256.1428,304.8941,0,U,49817,999,1648,0,-.3E-6,0
EXPRESS AMU-7,2021-123A,2026-06-08T14:09:38.541888,1.00272437,.0000591,0.0147,283.9589,64.1783,266.2549,0,U,50001,999,1645,0,-.226E-5,0
EXPRESS AMU-3,2021-123B,2026-06-08T00:02:29.090112,1.00269595,.00004238,0.0161,304.5274,62.7066,352.7755,0,U,50002,999,693,0,-.306E-5,0
TIANLIAN 2-02,2021-124A,2026-06-08T05:38:20.847264,1.00272697,.0001142,0.7775,86.2654,219.8915,206.0380,0,U,50005,999,1653,0,.2E-7,0
TURKSAT 5B,2021-126A,2026-06-08T23:50:55.140000,1.00271431,.0003609,0.0683,338.5411,18.8248,299.7491,0,U,50212,999,1621,0,.162E-5,0
INMARSAT 6-F1,2021-128A,2026-06-08T17:12:08.906400,1.00272678,.0000124,0.0152,289.1871,257.7540,51.9615,0,U,50319,999,1617,0,-.156E-5,0
SHIYAN-12 01 (SY-12 01),2021-129A,2026-06-08T18:41:18.942144,1.00038140,.0003395,3.6517,80.0230,287.7814,236.8345,0,U,50321,999,1641,0,.48E-6,0
SHIYAN-12 02 (SY-12 02),2021-129B,2026-06-08T17:11:46.442400,1.00491567,.0002714,3.6513,80.0304,55.4827,101.7644,0,U,50322,999,1641,0,-.189E-5,0
TJS-9,2021-135A,2026-06-09T05:26:06.110304,1.00271553,.0004717,0.0558,254.6970,154.3261,67.3218,0,U,50574,999,1635,0,-.282E-5,0
USA 324,2022-006A,2026-06-06T02:06:38.886912,1.00289779,.000284,0.7690,83.2777,165.6787,110.1567,0,U,51280,999,1602,0,-.58E-6,0
GOES 18,2022-021A,2026-06-09T02:25:10.682976,1.00270989,.0000475,0.0417,137.9243,358.3935,20.4561,0,U,51850,999,651,0,.113E-5,0
ZHONGXING-6D,2022-038A,2026-06-08T22:30:31.110912,1.00268958,.0000169,0.0449,94.6952,275.0152,350.3002,0,U,52255,999,1533,0,-.337E-5,0
NILESAT 301,2022-061A,2026-06-08T15:03:36.194400,1.00271880,.0005407,0.0573,29.1411,14.7863,71.9873,0,U,52817,999,1465,0,-.42E-6,0
CMS-02 (GSAT-24),2022-067A,2026-06-09T03:27:54.806112,1.00270757,.0001706,0.0394,135.8151,235.9015,20.7914,0,U,52903,999,1452,0,-.148E-5,0
MEASAT 3D,2022-067B,2026-06-09T03:30:24.568416,1.00270202,.0000734,0.0430,307.7503,109.4073,344.4701,0,U,52904,999,1456,0,-.225E-5,0
SES-22,2022-071A,2026-06-09T02:24:40.732416,1.00273993,.0001135,0.0234,289.5351,141.2058,83.9313,0,U,52933,999,744,0,.121E-5,0
WFOV (USA 332),2022-073A,2026-06-09T00:13:00.522048,1.00271368,.0002137,3.6889,78.6317,242.7928,58.4816,0,U,52940,999,1428,0,-.346E-5,0
TIANLIAN 2-03,2022-078A,2026-06-09T03:07:19.280064,1.00272090,.0001635,0.6518,76.8762,319.2538,278.7989,0,U,53100,999,1446,0,.89E-6,0
SBIRS GEO-6 (USA 336),2022-092A,2026-06-08T05:05:51.542304,1.00271179,.0002019,3.2738,317.3290,116.8839,37.8722,0,U,53355,999,1414,0,-.279E-5,0
EUTELSAT KONNECT VHTS,2022-110A,2026-06-09T04:02:38.566752,1.00269373,.0002623,0.0636,103.7736,319.7604,257.3898,0,U,53765,999,675,0,.34E-6,0
ZHONGXING-1E,2022-112A,2026-06-09T03:27:32.342976,1.00270324,.0000224,0.0470,107.1700,225.9871,57.6564,0,U,53813,999,1376,0,-.132E-5,0
SES-20,2022-123A,2026-06-09T02:34:54.748704,1.00269504,.0001941,0.0363,79.0408,15.6002,98.4785,0,U,53960,999,1345,0,-.84E-6,0
