STAR ONE D2             
1 49055U 21069A   26159.32989043  .00000000  00000+0  00000+0 0  9990
2 49055   0.0128 334.6169 0005608 102.1905 228.6130  1.00333647 17855
EUTELSAT QUANTUM        
1 49056U 21069B   26160.06611578  .00000142  00000+0  00000+0 0  9996
2 49056   0.0108 352.9142 0002299  81.1066 254.9312  1.00272460 17843
ZHONGXING-2E            
1 49062U 21071A   26159.93352102 -.00000275  00000+0  00000+0 0  9993
2 49062   0.0437 242.0026 0001749 239.9658 209.4768  1.00273610 17954
TJS-7                   
1 49115U 21077A   26160.17954623 -.00000107  00000+0  00000+0 0  9996
2 49115   0.4871  86.1713 0002402 335.5356 161.0305  1.00270985  9474
CHINASAT 9B             
1 49125U 21080A   26160.09794841 -.00000296  00000+0  00000+0 0  9995
2 49125   0.0340  96.2716 0001537   7.9636 289.9297  1.00272799 17560
SHIJIAN-21 (SJ-21)      
1 49330U 21094A   26159.77883291 -.00000332  00000+0  00000+0 0  9990
2 49330   5.0921  61.2284 0049597 168.0434  76.2756  1.00275369  5271
SES-17                  
1 49332U 21095A   26159.54432367 -.00000256  00000+0  00000+0 0  9997
2 49332   0.0256  35.0415 0001024  45.9352 304.8147  1.00269944 17762
SYRACUSE 4A             
1 49333U 21095B   26160.06568243  .00000152  00000+0  00000+0 0  9994
2 49333   0.0135 329.4559 0001416 105.5540 251.5883  1.00270508 17869
QZS-1R (MICHIBIKI-1R)   
1 49336U 21096A   26159.65389683 -.00000231  00000+0  00000+0 0  9999
2 49336  37.4439  79.7113 0754310 271.6148 275.6279  1.00258746 16923
ZHONGXING-1D            
1 49505U 21114A   26160.22507294 -.00000319  00000+0  00000+0 0  9990
2 49505   0.0372 242.5391 0000250 320.9201 265.3656  1.00273581 16745
STPSAT-6                
1 49817U 21118A   26159.39289771 -.00000030  00000+0  00000+0 0  9993
2 49817   0.2970  85.5058 0001402 256.1428 304.8941  1.00273463 16489
EXPRESS AMU-7           
1 50001U 21123A   26159.59002942 -.00000226  00000+0  00000+0 0  9998
2 50001   0.0147 283.9589 0000591  64.1783 266.2549  1.00272437 16454
EXPRESS AMU-3           
1 50002U 21123B   26159.00172558 -.00000306  00000+0  00000+0 0  9995
2 50002   0.0161 304.5274 0000423  62.7066 352.7755  1.00269595  6937
TIANLIAN 2-02           
1 50005U 21124A   26159.23496351  .00000002  00000+0  00000+0 0  9996
2 50005   0.7775  86.2654 0001142 219.8915 206.0380  1.00272697 16530
TURKSAT 5B              
1 50212U 21126A   26159.99369375  .00000162  00000+0  00000+0 0  9993
2 50212   0.0683 338.5411 0003609  18.8248 299.7491  1.00271431 16213
INMARSAT 6-F1           
1 50319U 21128A   26159.71676975 -.00000156  00000+0  00000+0 0  9994
2 50319   0.0152 289.1871 0000124 257.7540  51.9615  1.00272678 16176
SHIYAN-12 01 (SY-12 01) 
1 50321U 21129A   26159.77869146  .00000048  00000+0  00000+0 0  9997
2 50321   3.6517  80.0230 0003395 287.7814 236.8345  1.00038140 16415
SHIYAN-12 02 (SY-12 02) 
1 50322U 21129B   26159.71650975 -.00000189  00000+0  00000+0 0  9997
2 50322   3.6513  80.0304 0002714  55.4827 101.7644  1.00491567 16410
TJS-9                   
1 50574U 21135A   26160.22645961 -.00000282  00000+0  00000+0 0  9994
2 50574   0.0558 254.6970 0004717 154.3261  67.3218  1.00271553 16351
USA 324                 
1 51280U 22006A   26157.08795008 -.00000058  00000+0  00000+0 0  9996
2 51280   0.7690  83.2777 0002840 165.6787 110.1567  1.00289779 16021
GOES 18                 
1 51850U 22021A   26160.10081809  .00000113  00000+0  00000+0 0  9991
2 51850   0.0417 137.9243 0000475 358.3935  20.4561  1.00270989  6510
ZHONGXING-6D            
1 52255U 22038A   26159.93786008 -.00000337  00000+0  00000+0 0  9990
2 52255   0.0449  94.6952 0000169 275.0152 350.3002  1.00268958 15335
NILESAT 301             
1 52817U 22061A   26159.62750225 -.00000042  00000+0  00000+0 0  9991
2 52817   0.0573  29.1411 0005407  14.7863  71.9873  1.00271880 14651
CMS-02 (GSAT-24)        
1 52903U 22067A   26160.14438433 -.00000148  00000+0  00000+0 0  9993
2 52903   0.0394 135.8151 0001706 235.9015  20.7914  1.00270757 14524
MEASAT 3D               
1 52904U 22067B   26160.14611769 -.00000225  00000+0  00000+0 0  9995
2 52904   0.0430 307.7503 0000734 109.4073 344.4701  1.00270202 14565
SES-22                  
1 52933U 22071A   26160.10047144  .00000121  00000+0  00000+0 0  9992
2 52933   0.0234 289.5351 0001135 141.2058  83.9313  1.00273993  7443
WFOV (USA 332)          
1 52940U 22073A   26160.00903382 -.00000346  00000+0  00000+0 0  9996
2 52940   3.6889  78.6317 0002137 242.7928  58.4816  1.00271368 14280
TIANLIAN 2-03           
1 53100U 22078A   26160.13008426  .00000089  00000+0  00000+0 0  9992
2 53100   0.6518  76.8762 0001635 319.2538 278.7989  1.00272090 14469
SBIRS GEO-6 (USA 336)   
1 53355U 22092A   26159.21240211 -.00000279  00000+0  00000+0 0  9999
2 53355   3.2738 317.3290 0002019 116.8839  37.8722  1.00271179 14146
EUTELSAT KONNECT VHTS   
1 53765U 22110A   26160.16850193  .00000034  00000+0  00000+0 0  9995
2 53765   0.0636 103.7736 0002623 319.7604 257.3898  1.00269373  6754
ZHONGXING-1E            
1 53813U 22112A   26160.14412434 -.00000132  00000+0  00000+0 0  9991
2 53813   0.0470 107.1700 0000224 225.9871  57.6564  1.00270324 13760
SES-20                  
1 53960U 22123A   26160.10757811 -.00000084  00000+0  00000+0 0  9999
2 53960   0.0363  79.0408 0001941  15.6002  98.4785  1.00269504 13455
